CARTOSAT-2A             
1 32783U 08021A   26192.93906755 -.00000088  00000+0 -51300-5 0  9999
2 32783  97.7628 240.8011 0012741  36.9741 323.2347 14.79272408982462
CARTOSAT-2B             
1 36795U 10035A   26192.97185894  .00000507  00000+0  76320-4 0  9993
2 36795  97.9947 243.3610 0012527 108.4640 251.7934 14.78615162863511
CARBONITE 1 (CBNT-1)    
1 40718U 15032D   26192.93445669  .00001707  00000+0  21265-3 0  9990
2 40718  97.6520   9.9673 0013530 208.2112 151.8371 14.83665193593013
CARTOSAT-2C             
1 41599U 16040A   26192.95731998  .00002398  00000+0  11693-3 0  9994
2 41599  97.4479 252.5925 0009828  55.1836 305.0322 15.19249288557477
CARTOSAT-2D             
1 41948U 17008A   26192.98911946  .00001789  00000+0  88012-4 0  9996
2 41948  97.4099 251.8298 0005708 147.4843 212.6745 15.19266943521340
CARTOSAT-2E             
1 42767U 17036C   26192.94095999  .00001926  00000+0  94648-4 0  9999
2 42767  97.4272 252.3334 0002922 198.4154 161.6975 15.19238530501905
CARTOSAT-2F             
1 43111U 18004A   26192.90768358  .00002035  00000+0  99816-4 0  9995
2 43111  97.4784 252.2990 0002450 143.5676 216.5725 15.19253104471082
CARTOSAT-3              
1 44804U 19081A   26192.98776576  .00001238  00000+0  61760-4 0  9991
2 44804  97.4299 254.4540 0013291  71.1756 289.0919 15.19306488367233
CARBSAR                 
1 67397U 26004AL  26192.93325750  .00003723  00000+0  17663-3 0  9998
2 67397  97.4543 191.8024 0003861 237.5063 122.5799 15.19880417 27520
CAPELLA-20 (ACADIA-10)  
1 68485U 26067BX  26192.84452265  .00003778  00000+0  38132-3 0  9992
2 68485  97.7582 150.7468 0000821 138.5256 221.6025 14.91663860 15405
